start=new Date('2022-02-22T00:00:00.000Z').valueOf();
sats=[{"RA_OF_ASC_NODE":"276.1764","MEAN_MOTION_DOT":"0.00000022","INCLINATION":"53.0533","FILE":"3312023","MEAN_ELEMENT_THEORY":"SGP4","TLE_LINE2":"2 46045  53.0533 276.1764 0001588  59.6472 300.4674 15.06396654 86281","COUNTRY_CODE":"US","CENTER_NAME":"EARTH","RCS_SIZE":"LARGE","EPOCH":"2022-02-21T21:38:55.972608","PERIOD":"95.592","MEAN_MOTION":"15.06396654","MEAN_MOTION_DDOT":"0.0000000000000","ECCENTRICITY":"0.00015880","OBJECT_TYPE":"PAYLOAD","REF_FRAME":"TEME","PERIAPSIS":"546.124","TLE_LINE1":"1 46045U 20055U   22052.90203672  .00000022  00000-0  20405-4 0  9990","SITE":"AFETR","ARG_OF_PERICENTER":"59.6472","APOAPSIS":"548.324","EPHEMERIS_TYPE":"0","NORAD_CAT_ID":"46045","DECAY_DATE":null,"BSTAR":"0.00002040500000","CLASSIFICATION_TYPE":"U","LAUNCH_DATE":"2020-08-07","REV_AT_EPOCH":"8628","OBJECT_NAME":"STARLINK-1591","ELEMENT_SET_NO":"999","MEAN_ANOMALY":"300.4674","SEMIMAJOR_AXIS":"6925.359","OBJECT_ID":"2020-055U","TIME_SYSTEM":"UTC","GP_ID":"196569811"},{"ELEMENT_SET_NO":"999","OBJECT_NAME":"STARLINK-1514","REV_AT_EPOCH":"8714","LAUNCH_DATE":"2020-08-07","TIME_SYSTEM":"UTC","OBJECT_ID":"2020-055V","SEMIMAJOR_AXIS":"6761.997","MEAN_ANOMALY":"200.5558","GP_ID":"196571061","ECCENTRICITY":"0.00036820","MEAN_MOTION_DDOT":"0.0000000000000","PERIAPSIS":"381.373","OBJECT_TYPE":"PAYLOAD","REF_FRAME":"TEME","ARG_OF_PERICENTER":"159.5603","SITE":"AFETR","TLE_LINE1":"1 46046U 20055V   22052.87261848  .00040446  00000-0  47076-3 0  9992","BSTAR":"0.00047076000000","CLASSIFICATION_TYPE":"U","DECAY_DATE":null,"NORAD_CAT_ID":"46046","EPHEMERIS_TYPE":"0","APOAPSIS":"386.352","RCS_SIZE":"LARGE","MEAN_MOTION":"15.61314029","PERIOD":"92.230","EPOCH":"2022-02-21T20:56:34.236672","MEAN_MOTION_DOT":"0.00040446","RA_OF_ASC_NODE":"214.2129","MEAN_ELEMENT_THEORY":"SGP4","FILE":"3312023","INCLINATION":"53.0540","COUNTRY_CODE":"US","CENTER_NAME":"EARTH","TLE_LINE2":"2 46046  53.0540 214.2129 0003682 159.5603 200.5558 15.61314029 87145"},{"COUNTRY_CODE":"US","CENTER_NAME":"EARTH","TLE_LINE2":"2 46047  53.0513 266.3989 0001592  77.4330 282.6837 15.06396236 86432","MEAN_MOTION_DOT":"0.00005517","RA_OF_ASC_NODE":"266.3989","MEAN_ELEMENT_THEORY":"SGP4","FILE":"3312023","INCLINATION":"53.0513","MEAN_MOTION":"15.06396236","EPOCH":"2022-02-21T20:31:16.256928","PERIOD":"95.592","RCS_SIZE":"LARGE","ARG_OF_PERICENTER":"77.4330","TLE_LINE1":"1 46047U 20055W   22052.85504927  .00005517  00000-0  38900-3 0  9995","SITE":"AFETR","CLASSIFICATION_TYPE":"U","BSTAR":"0.00038900000000","NORAD_CAT_ID":"46047","DECAY_DATE":null,"APOAPSIS":"548.328","EPHEMERIS_TYPE":"0","ECCENTRICITY":"0.00015920","MEAN_MOTION_DDOT":"0.0000000000000","PERIAPSIS":"546.123","REF_FRAME":"TEME","OBJECT_TYPE":"PAYLOAD","GP_ID":"196571316","ELEMENT_SET_NO":"999","OBJECT_NAME":"STARLINK-1524","REV_AT_EPOCH":"8643","LAUNCH_DATE":"2020-08-07","OBJECT_ID":"2020-055W","TIME_SYSTEM":"UTC","SEMIMAJOR_AXIS":"6925.360","MEAN_ANOMALY":"282.6837"},{"PERIOD":"95.592","EPOCH":"2022-02-21T20:25:57.060768","MEAN_MOTION":"15.06400256","RCS_SIZE":"LARGE","CENTER_NAME":"EARTH","COUNTRY_CODE":"US","TLE_LINE2":"2 46048  53.0538 266.4039 0001178  73.6655 286.4463 15.06400256 86418","RA_OF_ASC_NODE":"266.4039","MEAN_MOTION_DOT":"-0.00000445","MEAN_ELEMENT_THEORY":"SGP4","INCLINATION":"53.0538","FILE":"3312023","GP_ID":"196570063","ELEMENT_SET_NO":"999","LAUNCH_DATE":"2020-08-07","REV_AT_EPOCH":"8641","OBJECT_NAME":"STARLINK-1527","SEMIMAJOR_AXIS":"6925.348","OBJECT_ID":"2020-055X","TIME_SYSTEM":"UTC","MEAN_ANOMALY":"286.4463","ARG_OF_PERICENTER":"73.6655","TLE_LINE1":"1 46048U 20055X   22052.85135487 -.00000445  00000-0 -10975-4 0  9997","SITE":"AFETR","DECAY_DATE":null,"NORAD_CAT_ID":"46048","CLASSIFICATION_TYPE":"U","BSTAR":"-0.00001097500000","APOAPSIS":"548.029","EPHEMERIS_TYPE":"0","ECCENTRICITY":"0.00011780","MEAN_MOTION_DDOT":"0.0000000000000","PERIAPSIS":"546.397","REF_FRAME":"TEME","OBJECT_TYPE":"PAYLOAD"},{"PERIAPSIS":"546.027","REF_FRAME":"TEME","OBJECT_TYPE":"PAYLOAD","ECCENTRICITY":"0.00017030","MEAN_MOTION_DDOT":"0.0000000000000","DECAY_DATE":null,"NORAD_CAT_ID":"46049","CLASSIFICATION_TYPE":"U","BSTAR":"0.00018753000000","APOAPSIS":"548.386","EPHEMERIS_TYPE":"0","ARG_OF_PERICENTER":"71.2080","TLE_LINE1":"1 46049U 20055Y   22052.91401432  .00002513  00000-0  18753-3 0  9998","SITE":"AFETR","SEMIMAJOR_AXIS":"6925.342","TIME_SYSTEM":"UTC","OBJECT_ID":"2020-055Y","MEAN_ANOMALY":"288.9093","ELEMENT_SET_NO":"999","LAUNCH_DATE":"2020-08-07","REV_AT_EPOCH":"8645","OBJECT_NAME":"STARLINK-1530","GP_ID":"196570312","MEAN_ELEMENT_THEORY":"SGP4","INCLINATION":"53.0541","FILE":"3312023","RA_OF_ASC_NODE":"266.1281","MEAN_MOTION_DOT":"0.00002513","COUNTRY_CODE":"US","CENTER_NAME":"EARTH","TLE_LINE2":"2 46049  53.0541 266.1281 0001703  71.2080 288.9093 15.06402274 86451","RCS_SIZE":"LARGE","PERIOD":"95.592","EPOCH":"2022-02-21T21:56:10.837248","MEAN_MOTION":"15.06402274"},{"GP_ID":"196570561","MEAN_ANOMALY":"280.7520","SEMIMAJOR_AXIS":"6925.379","TIME_SYSTEM":"UTC","OBJECT_ID":"2020-055AA","LAUNCH_DATE":"2020-08-07","REV_AT_EPOCH":"8645","OBJECT_NAME":"STARLINK-1540","ELEMENT_SET_NO":"999","APOAPSIS":"548.250","EPHEMERIS_TYPE":"0","NORAD_CAT_ID":"46051","DECAY_DATE":null,"BSTAR":"-0.00007790900000","CLASSIFICATION_TYPE":"U","TLE_LINE1":"1 46051U 20055AA  22052.88453280 -.00001441  00000-0 -77909-4 0  9995","SITE":"AFETR","ARG_OF_PERICENTER":"79.3632","REF_FRAME":"TEME","OBJECT_TYPE":"PAYLOAD","PERIAPSIS":"546.239","MEAN_MOTION_DDOT":"0.0000000000000","ECCENTRICITY":"0.00014520","PERIOD":"95.593","EPOCH":"2022-02-21T21:13:43.633920","MEAN_MOTION":"15.06389955","RCS_SIZE":"LARGE","TLE_LINE2":"2 46051  53.0538 266.2552 0001452  79.3632 280.7520 15.06389955 86450","COUNTRY_CODE":"US","CENTER_NAME":"EARTH","INCLINATION":"53.0538","FILE":"3312023","MEAN_ELEMENT_THEORY":"SGP4","RA_OF_ASC_NODE":"266.2552","MEAN_MOTION_DOT":"-0.00001441"},{"OBJECT_TYPE":"PAYLOAD","REF_FRAME":"TEME","PERIAPSIS":"546.181","MEAN_MOTION_DDOT":"0.0000000000000","ECCENTRICITY":"0.00014920","APOAPSIS":"548.248","EPHEMERIS_TYPE":"0","NORAD_CAT_ID":"46052","DECAY_DATE":null,"BSTAR":"0.00006056200000","CLASSIFICATION_TYPE":"U","SITE":"AFETR","TLE_LINE1":"1 46052U 20055AB  22052.86978249  .00000621  00000-0  60562-4 0  9995","ARG_OF_PERICENTER":"85.7683","MEAN_ANOMALY":"274.3476","SEMIMAJOR_AXIS":"6925.350","OBJECT_ID":"2020-055AB","TIME_SYSTEM":"UTC","LAUNCH_DATE":"2020-08-07","OBJECT_NAME":"STARLINK-1541","REV_AT_EPOCH":"8641","ELEMENT_SET_NO":"999","GP_ID":"196570816","INCLINATION":"53.0528","FILE":"3312023","MEAN_ELEMENT_THEORY":"SGP4","RA_OF_ASC_NODE":"266.3129","MEAN_MOTION_DOT":"0.00000621","TLE_LINE2":"2 46052  53.0528 266.3129 0001492  85.7683 274.3476 15.06399623 86410","CENTER_NAME":"EARTH","COUNTRY_CODE":"US","RCS_SIZE":"LARGE","PERIOD":"95.592","EPOCH":"2022-02-21T20:52:29.207136","MEAN_MOTION":"15.06399623"},{"RCS_SIZE":"LARGE","MEAN_MOTION":"15.06390838","PERIOD":"95.593","EPOCH":"2022-02-21T20:57:48.660768","MEAN_MOTION_DOT":"-0.00000003","RA_OF_ASC_NODE":"266.2908","MEAN_ELEMENT_THEORY":"SGP4","FILE":"3312023","INCLINATION":"53.0542","CENTER_NAME":"EARTH","COUNTRY_CODE":"US","TLE_LINE2":"2 46053  53.0542 266.2908 0001715  72.6869 287.4308 15.06390838 86441","ELEMENT_SET_NO":"999","REV_AT_EPOCH":"8644","OBJECT_NAME":"STARLINK-1543","LAUNCH_DATE":"2020-08-07","OBJECT_ID":"2020-055AC","TIME_SYSTEM":"UTC","SEMIMAJOR_AXIS":"6925.377","MEAN_ANOMALY":"287.4308","GP_ID":"196569563","ECCENTRICITY":"0.00017150","MEAN_MOTION_DDOT":"0.0000000000000","PERIAPSIS":"546.054","REF_FRAME":"TEME","OBJECT_TYPE":"PAYLOAD","ARG_OF_PERICENTER":"72.6869","SITE":"AFETR","TLE_LINE1":"1 46053U 20055AC  22052.87347987 -.00000003  00000-0  18675-4 0  9999","BSTAR":"0.00001867500000","CLASSIFICATION_TYPE":"U","NORAD_CAT_ID":"46053","DECAY_DATE":null,"APOAPSIS":"548.429","EPHEMERIS_TYPE":"0"},{"SEMIMAJOR_AXIS":"6925.379","OBJECT_ID":"2020-055AD","TIME_SYSTEM":"UTC","MEAN_ANOMALY":"290.0829","ELEMENT_SET_NO":"999","LAUNCH_DATE":"2020-08-07","REV_AT_EPOCH":"8644","OBJECT_NAME":"STARLINK-1548","GP_ID":"196569812","PERIAPSIS":"546.231","REF_FRAME":"TEME","OBJECT_TYPE":"PAYLOAD","ECCENTRICITY":"0.00014630","MEAN_MOTION_DDOT":"0.0000000000000","NORAD_CAT_ID":"46054","DECAY_DATE":null,"CLASSIFICATION_TYPE":"U","BSTAR":"0.00003884800000","EPHEMERIS_TYPE":"0","APOAPSIS":"548.258","ARG_OF_PERICENTER":"70.0318","SITE":"AFETR","TLE_LINE1":"1 46054U 20055AD  22052.88083893  .00000297  00000-0  38848-4 0  9992","RCS_SIZE":"LARGE","PERIOD":"95.593","EPOCH":"2022-02-21T21:08:24.483552","MEAN_MOTION":"15.06389951","MEAN_ELEMENT_THEORY":"SGP4","INCLINATION":"53.0546","FILE":"3312023","RA_OF_ASC_NODE":"266.2673","MEAN_MOTION_DOT":"0.00000297","CENTER_NAME":"EARTH","COUNTRY_CODE":"US","TLE_LINE2":"2 46054  53.0546 266.2673 0001463  70.0318 290.0829 15.06389951 86448"},{"RA_OF_ASC_NODE":"266.3483","MEAN_MOTION_DOT":"-0.00001895","INCLINATION":"53.0548","FILE":"3312023","MEAN_ELEMENT_THEORY":"SGP4","TLE_LINE2":"2 46055  53.0548 266.3483 0001557  76.1298 283.9865 15.06392536 86443","CENTER_NAME":"EARTH","COUNTRY_CODE":"US","RCS_SIZE":"LARGE","PERIOD":"95.593","EPOCH":"2022-02-21T20:47:11.071968","MEAN_MOTION":"15.06392536","MEAN_MOTION_DDOT":"0.0000000000000","ECCENTRICITY":"0.00015570","REF_FRAME":"TEME","OBJECT_TYPE":"PAYLOAD","PERIAPSIS":"546.158","SITE":"AFETR","TLE_LINE1":"1 46055U 20055AE  22052.86610037 -.00001895  00000-0 -10839-3 0  9993","ARG_OF_PERICENTER":"76.1298","EPHEMERIS_TYPE":"0","APOAPSIS":"548.315","DECAY_DATE":null,"NORAD_CAT_ID":"46055","BSTAR":"-0.00010839000000","CLASSIFICATION_TYPE":"U","LAUNCH_DATE":"2020-08-07","REV_AT_EPOCH":"8644","OBJECT_NAME":"STARLINK-1554","ELEMENT_SET_NO":"999","MEAN_ANOMALY":"283.9865","SEMIMAJOR_AXIS":"6925.371","OBJECT_ID":"2020-055AE","TIME_SYSTEM":"UTC","GP_ID":"196571062"}];
